{"type": "FeatureCollection", "features": [{"type": "Feature", "properties": {"name": "Totalit\u00e4tszone 2.8.2027"}, "geometry": {"type": "Polygon", "coordinates": [[[-12.0, 36.34], [-11.5, 36.395], [-11.0, 36.438], [-10.5, 36.48], [-10.0, 36.523], [-9.5, 36.562], [-9.0, 36.594], [-8.5, 36.625], [-8.0, 36.656], [-7.5, 36.684], [-7.0, 36.711], [-6.5, 36.73], [-6.0, 36.75], [-5.5, 36.77], [-5.0, 36.785], [-4.5, 36.801], [-4.0, 36.805], [-3.5, 36.816], [-3.0, 36.816], [-2.5, 36.816], [-2.0, 36.816], [-1.5, 36.812], [-1.0, 36.801], [-0.5, 36.797], [0.0, 36.777], [0.5, 36.762], [1.0, 36.742], [1.5, 36.723], [2.0, 36.691], [2.5, 36.668], [3.0, 36.637], [3.5, 36.598], [4.0, 36.559], [4.5, 36.516], [5.0, 36.473], [5.5, 36.426], [6.0, 36.375], [6.5, 36.32], [7.0, 36.262], [7.5, 36.195], [8.0, 36.133], [8.5, 36.059], [9.0, 35.984], [9.5, 35.914], [10.0, 35.832], [10.5, 35.746], [11.0, 35.656], [11.5, 35.562], [12.0, 35.469], [12.5, 35.367], [13.0, 35.266], [13.5, 35.156], [14.0, 35.043], [14.5, 34.926], [15.0, 34.805], [15.5, 34.68], [16.0, 34.551], [16.5, 34.418], [17.0, 34.285], [17.5, 34.137], [18.0, 33.992], [18.5, 33.836], [19.0, 33.684], [19.5, 33.52], [20.0, 33.352], [20.5, 33.18], [21.0, 33.0], [21.5, 32.816], [22.0, 32.633], [22.5, 32.441], [23.0, 32.242], [23.5, 32.035], [24.0, 31.832], [24.5, 31.617], [25.0, 31.391], [25.5, 31.172], [26.0, 30.934], [26.5, 30.699], [27.0, 30.457], [27.5, 30.203], [28.0, 29.945], [28.5, 29.688], [29.0, 29.418], [29.5, 29.148], [30.0, 28.867], [30.5, 28.578], [31.0, 28.289], [31.5, 27.988], [32.0, 27.68], [32.5, 27.371], [33.0, 27.047], [33.5, 26.723], [34.0, 26.391], [34.5, 26.055], [35.0, 25.711], [35.5, 25.359], [36.0, 25.008], [36.5, 24.645], [37.0, 24.273], [37.5, 23.902], [38.0, 23.516], [38.5, 23.133], [39.0, 22.738], [39.5, 22.34], [40.0, 21.941], [40.5, 21.535], [41.0, 21.125], [41.5, 20.707], [42.0, 20.285], [42.5, 19.859], [43.0, 19.434], [43.5, 19.0], [44.0, 18.562], [44.5, 18.129], [44.5, 17.348], [44.0, 17.125], [43.5, 17.242], [43.0, 17.043], [42.5, 17.219], [42.0, 17.145], [41.5, 17.574], [41.0, 18.0], [40.5, 18.426], [40.0, 18.84], [39.5, 19.254], [39.0, 19.668], [38.5, 20.07], [38.0, 20.477], [37.5, 20.871], [37.0, 21.258], [36.5, 21.645], [36.0, 22.023], [35.5, 22.398], [35.0, 22.766], [34.5, 23.125], [34.0, 23.477], [33.5, 23.832], [33.0, 24.172], [32.5, 24.512], [32.0, 24.836], [31.5, 25.16], [31.0, 25.477], [30.5, 25.789], [30.0, 26.094], [29.5, 26.391], [29.0, 26.684], [28.5, 26.969], [28.0, 27.25], [27.5, 27.523], [27.0, 27.785], [26.5, 28.051], [26.0, 28.301], [25.5, 28.547], [25.0, 28.789], [24.5, 29.031], [24.0, 29.254], [23.5, 29.48], [23.0, 29.695], [22.5, 29.91], [22.0, 30.117], [21.5, 30.316], [21.0, 30.516], [20.5, 30.703], [20.0, 30.891], [19.5, 31.066], [19.0, 31.238], [18.5, 31.414], [18.0, 31.578], [17.5, 31.73], [17.0, 31.887], [16.5, 32.035], [16.0, 32.184], [15.5, 32.32], [15.0, 32.453], [14.5, 32.582], [14.0, 32.707], [13.5, 32.828], [13.0, 32.945], [12.5, 33.062], [12.0, 33.164], [11.5, 33.273], [11.0, 33.367], [10.5, 33.465], [10.0, 33.559], [9.5, 33.648], [9.0, 33.727], [8.5, 33.809], [8.0, 33.883], [7.5, 33.953], [7.0, 34.027], [6.5, 34.086], [6.0, 34.148], [5.5, 34.207], [5.0, 34.262], [4.5, 34.312], [4.0, 34.355], [3.5, 34.402], [3.0, 34.441], [2.5, 34.473], [2.0, 34.512], [1.5, 34.543], [1.0, 34.57], [0.5, 34.59], [0.0, 34.613], [-0.5, 34.625], [-1.0, 34.645], [-1.5, 34.656], [-2.0, 34.66], [-2.5, 34.668], [-3.0, 34.668], [-3.5, 34.668], [-4.0, 34.664], [-4.5, 34.66], [-5.0, 34.652], [-5.5, 34.637], [-6.0, 34.625], [-6.5, 34.605], [-7.0, 34.586], [-7.5, 34.559], [-8.0, 34.531], [-8.5, 34.508], [-9.0, 34.477], [-9.5, 34.445], [-10.0, 34.406], [-10.5, 34.371], [-11.0, 34.328], [-11.5, 34.285], [-12.0, 34.238], [-12.0, 36.34]]]}}, {"type": "Feature", "properties": {"name": "Zentrallinie"}, "geometry": {"type": "LineString", "coordinates": [[-12.0, 35.289], [-11.5, 35.34], [-11.0, 35.383], [-10.5, 35.426], [-10.0, 35.465], [-9.5, 35.504], [-9.0, 35.535], [-8.5, 35.566], [-8.0, 35.594], [-7.5, 35.621], [-7.0, 35.648], [-6.5, 35.668], [-6.0, 35.688], [-5.5, 35.703], [-5.0, 35.719], [-4.5, 35.73], [-4.0, 35.734], [-3.5, 35.742], [-3.0, 35.742], [-2.5, 35.742], [-2.0, 35.738], [-1.5, 35.734], [-1.0, 35.723], [-0.5, 35.711], [0.0, 35.695], [0.5, 35.676], [1.0, 35.656], [1.5, 35.633], [2.0, 35.602], [2.5, 35.57], [3.0, 35.539], [3.5, 35.5], [4.0, 35.457], [4.5, 35.414], [5.0, 35.367], [5.5, 35.316], [6.0, 35.262], [6.5, 35.203], [7.0, 35.145], [7.5, 35.074], [8.0, 35.008], [8.5, 34.934], [9.0, 34.855], [9.5, 34.781], [10.0, 34.695], [10.5, 34.605], [11.0, 34.512], [11.5, 34.418], [12.0, 34.316], [12.5, 34.215], [13.0, 34.105], [13.5, 33.992], [14.0, 33.875], [14.5, 33.754], [15.0, 33.629], [15.5, 33.5], [16.0, 33.367], [16.5, 33.227], [17.0, 33.086], [17.5, 32.934], [18.0, 32.785], [18.5, 32.625], [19.0, 32.461], [19.5, 32.293], [20.0, 32.121], [20.5, 31.941], [21.0, 31.758], [21.5, 31.566], [22.0, 31.375], [22.5, 31.176], [23.0, 30.969], [23.5, 30.758], [24.0, 30.543], [24.5, 30.324], [25.0, 30.09], [25.5, 29.859], [26.0, 29.617], [26.5, 29.375], [27.0, 29.121], [27.5, 28.863], [28.0, 28.598], [28.5, 28.328], [29.0, 28.051], [29.5, 27.77], [30.0, 27.48], [30.5, 27.184], [31.0, 26.883], [31.5, 26.574], [32.0, 26.258], [32.5, 25.941], [33.0, 25.609], [33.5, 25.277], [34.0, 24.934], [34.5, 24.59], [35.0, 24.238], [35.5, 23.879], [36.0, 23.516], [36.5, 23.145], [37.0, 22.766], [37.5, 22.387], [38.0, 21.996], [38.5, 21.602], [39.0, 21.203], [39.5, 20.797], [40.0, 20.391], [40.5, 19.98], [41.0, 19.562], [41.5, 19.141], [42.0, 18.715], [42.5, 18.539], [43.0, 18.238], [43.5, 18.121], [44.0, 17.844], [44.5, 17.738]]}}, {"type": "Feature", "properties": {"name": "Nordgrenze"}, "geometry": {"type": "LineString", "coordinates": [[-12.0, 36.34], [-11.5, 36.395], [-11.0, 36.438], [-10.5, 36.48], [-10.0, 36.523], [-9.5, 36.562], [-9.0, 36.594], [-8.5, 36.625], [-8.0, 36.656], [-7.5, 36.684], [-7.0, 36.711], [-6.5, 36.73], [-6.0, 36.75], [-5.5, 36.77], [-5.0, 36.785], [-4.5, 36.801], [-4.0, 36.805], [-3.5, 36.816], [-3.0, 36.816], [-2.5, 36.816], [-2.0, 36.816], [-1.5, 36.812], [-1.0, 36.801], [-0.5, 36.797], [0.0, 36.777], [0.5, 36.762], [1.0, 36.742], [1.5, 36.723], [2.0, 36.691], [2.5, 36.668], [3.0, 36.637], [3.5, 36.598], [4.0, 36.559], [4.5, 36.516], [5.0, 36.473], [5.5, 36.426], [6.0, 36.375], [6.5, 36.32], [7.0, 36.262], [7.5, 36.195], [8.0, 36.133], [8.5, 36.059], [9.0, 35.984], [9.5, 35.914], [10.0, 35.832], [10.5, 35.746], [11.0, 35.656], [11.5, 35.562], [12.0, 35.469], [12.5, 35.367], [13.0, 35.266], [13.5, 35.156], [14.0, 35.043], [14.5, 34.926], [15.0, 34.805], [15.5, 34.68], [16.0, 34.551], [16.5, 34.418], [17.0, 34.285], [17.5, 34.137], [18.0, 33.992], [18.5, 33.836], [19.0, 33.684], [19.5, 33.52], [20.0, 33.352], [20.5, 33.18], [21.0, 33.0], [21.5, 32.816], [22.0, 32.633], [22.5, 32.441], [23.0, 32.242], [23.5, 32.035], [24.0, 31.832], [24.5, 31.617], [25.0, 31.391], [25.5, 31.172], [26.0, 30.934], [26.5, 30.699], [27.0, 30.457], [27.5, 30.203], [28.0, 29.945], [28.5, 29.688], [29.0, 29.418], [29.5, 29.148], [30.0, 28.867], [30.5, 28.578], [31.0, 28.289], [31.5, 27.988], [32.0, 27.68], [32.5, 27.371], [33.0, 27.047], [33.5, 26.723], [34.0, 26.391], [34.5, 26.055], [35.0, 25.711], [35.5, 25.359], [36.0, 25.008], [36.5, 24.645], [37.0, 24.273], [37.5, 23.902], [38.0, 23.516], [38.5, 23.133], [39.0, 22.738], [39.5, 22.34], [40.0, 21.941], [40.5, 21.535], [41.0, 21.125], [41.5, 20.707], [42.0, 20.285], [42.5, 19.859], [43.0, 19.434], [43.5, 19.0], [44.0, 18.562], [44.5, 18.129]]}}, {"type": "Feature", "properties": {"name": "S\u00fcdgrenze"}, "geometry": {"type": "LineString", "coordinates": [[-12.0, 34.238], [-11.5, 34.285], [-11.0, 34.328], [-10.5, 34.371], [-10.0, 34.406], [-9.5, 34.445], [-9.0, 34.477], [-8.5, 34.508], [-8.0, 34.531], [-7.5, 34.559], [-7.0, 34.586], [-6.5, 34.605], [-6.0, 34.625], [-5.5, 34.637], [-5.0, 34.652], [-4.5, 34.66], [-4.0, 34.664], [-3.5, 34.668], [-3.0, 34.668], [-2.5, 34.668], [-2.0, 34.66], [-1.5, 34.656], [-1.0, 34.645], [-0.5, 34.625], [0.0, 34.613], [0.5, 34.59], [1.0, 34.57], [1.5, 34.543], [2.0, 34.512], [2.5, 34.473], [3.0, 34.441], [3.5, 34.402], [4.0, 34.355], [4.5, 34.312], [5.0, 34.262], [5.5, 34.207], [6.0, 34.148], [6.5, 34.086], [7.0, 34.027], [7.5, 33.953], [8.0, 33.883], [8.5, 33.809], [9.0, 33.727], [9.5, 33.648], [10.0, 33.559], [10.5, 33.465], [11.0, 33.367], [11.5, 33.273], [12.0, 33.164], [12.5, 33.062], [13.0, 32.945], [13.5, 32.828], [14.0, 32.707], [14.5, 32.582], [15.0, 32.453], [15.5, 32.32], [16.0, 32.184], [16.5, 32.035], [17.0, 31.887], [17.5, 31.73], [18.0, 31.578], [18.5, 31.414], [19.0, 31.238], [19.5, 31.066], [20.0, 30.891], [20.5, 30.703], [21.0, 30.516], [21.5, 30.316], [22.0, 30.117], [22.5, 29.91], [23.0, 29.695], [23.5, 29.48], [24.0, 29.254], [24.5, 29.031], [25.0, 28.789], [25.5, 28.547], [26.0, 28.301], [26.5, 28.051], [27.0, 27.785], [27.5, 27.523], [28.0, 27.25], [28.5, 26.969], [29.0, 26.684], [29.5, 26.391], [30.0, 26.094], [30.5, 25.789], [31.0, 25.477], [31.5, 25.16], [32.0, 24.836], [32.5, 24.512], [33.0, 24.172], [33.5, 23.832], [34.0, 23.477], [34.5, 23.125], [35.0, 22.766], [35.5, 22.398], [36.0, 22.023], [36.5, 21.645], [37.0, 21.258], [37.5, 20.871], [38.0, 20.477], [38.5, 20.07], [39.0, 19.668], [39.5, 19.254], [40.0, 18.84], [40.5, 18.426], [41.0, 18.0], [41.5, 17.574], [42.0, 17.145], [42.5, 17.219], [43.0, 17.043], [43.5, 17.242], [44.0, 17.125], [44.5, 17.348]]}}]}